[{"OBJECT_NAME":"STELLA","OBJECT_ID":"1993-061B","EPOCH":"2026-03-09T22:50:14.153280","MEAN_MOTION":14.2746756,"ECCENTRICITY":0.00067535,"INCLINATION":98.784,"RA_OF_ASC_NODE":132.7988,"ARG_OF_PERICENTER":156.9855,"MEAN_ANOMALY":327.7404,"EPHEMERIS_TYPE":0,"CLASSIFICATION_TYPE":"U","NORAD_CAT_ID":22824,"ELEMENT_SET_NO":999,"REV_AT_EPOCH":69061,"BSTAR":7.617075e-6,"MEAN_MOTION_DOT":-2.6e-7,"MEAN_MOTION_DDOT":0},{"OBJECT_NAME":"FENGYUN 1C DEB","OBJECT_ID":"1999-025YM","EPOCH":"2026-03-09T03:44:46.433472","MEAN_MOTION":14.27660108,"ECCENTRICITY":0.00261053,"INCLINATION":98.8487,"RA_OF_ASC_NODE":145.8276,"ARG_OF_PERICENTER":193.2874,"MEAN_ANOMALY":166.7622,"EPHEMERIS_TYPE":0,"CLASSIFICATION_TYPE":"U","NORAD_CAT_ID":30276,"ELEMENT_SET_NO":999,"REV_AT_EPOCH":98763,"BSTAR":0.0015899908,"MEAN_MOTION_DOT":3.889e-5,"MEAN_MOTION_DDOT":0}]
